start=new Date('2022-12-24T00:00:00.000Z').valueOf();
sats=[{"GP_ID":"221309758","ECCENTRICITY":"0.00021960","APOAPSIS":"541.305","MEAN_MOTION":"15.08826793","ELEMENT_SET_NO":"999","DECAY_DATE":null,"INCLINATION":"53.2179","REF_FRAME":"TEME","NORAD_CAT_ID":"53629","EPHEMERIS_TYPE":"0","ARG_OF_PERICENTER":"35.0359","RA_OF_ASC_NODE":"95.5203","REV_AT_EPOCH":"1881","MEAN_MOTION_DDOT":"0.0000000000000","MEAN_ELEMENT_THEORY":"SGP4","BSTAR":"-0.00002254200000","TIME_SYSTEM":"UTC","CENTER_NAME":"EARTH","PERIOD":"95.438","EPOCH":"2022-12-23T14:22:22.969344","RCS_SIZE":"LARGE","COUNTRY_CODE":"US","TLE_LINE1":"1 53629U 22104AT  22357.59887696 -.00000647  00000-0 -22542-4 0  9999","FILE":"3720518","OBJECT_TYPE":"PAYLOAD","PERIAPSIS":"538.267","CLASSIFICATION_TYPE":"U","MEAN_MOTION_DOT":"-0.00000647","TLE_LINE2":"2 53629  53.2179  95.5203 0002196  35.0359 325.0777 15.08826793 18819","SEMIMAJOR_AXIS":"6917.921","SITE":"AFETR","OBJECT_ID":"2022-104AT","MEAN_ANOMALY":"325.0777","LAUNCH_DATE":"2022-08-28","OBJECT_NAME":"STARLINK-4602"},{"PERIOD":"95.437","CENTER_NAME":"EARTH","TIME_SYSTEM":"UTC","BSTAR":"0.00019139000000","MEAN_MOTION_DDOT":"0.0000000000000","MEAN_ELEMENT_THEORY":"SGP4","REV_AT_EPOCH":"1831","RA_OF_ASC_NODE":"84.2573","ARG_OF_PERICENTER":"58.8181","REF_FRAME":"TEME","NORAD_CAT_ID":"53630","EPHEMERIS_TYPE":"0","INCLINATION":"53.2183","DECAY_DATE":null,"MEAN_MOTION":"15.08848004","ELEMENT_SET_NO":"999","ECCENTRICITY":"0.00015710","APOAPSIS":"540.808","GP_ID":"221309926","LAUNCH_DATE":"2022-08-28","OBJECT_NAME":"STARLINK-4598","MEAN_ANOMALY":"301.2965","OBJECT_ID":"2022-104AU","SITE":"AFETR","SEMIMAJOR_AXIS":"6917.856","TLE_LINE2":"2 53630  53.2183  84.2573 0001571  58.8181 301.2965 15.08848004 18312","MEAN_MOTION_DOT":"0.00002760","CLASSIFICATION_TYPE":"U","OBJECT_TYPE":"PAYLOAD","PERIAPSIS":"538.634","FILE":"3720519","TLE_LINE1":"1 53630U 22104AU  22357.96416605  .00002760  00000-0  19139-3 0  9993","EPOCH":"2022-12-23T23:08:23.946720","RCS_SIZE":"LARGE","COUNTRY_CODE":"US"},{"DECAY_DATE":null,"INCLINATION":"53.2181","REF_FRAME":"TEME","EPHEMERIS_TYPE":"0","NORAD_CAT_ID":"53630","GP_ID":"221308770","ECCENTRICITY":"0.00015880","APOAPSIS":"540.834","ELEMENT_SET_NO":"999","MEAN_MOTION":"15.08843389","BSTAR":"0.00012241000000","TIME_SYSTEM":"UTC","CENTER_NAME":"EARTH","PERIOD":"95.437","ARG_OF_PERICENTER":"58.2271","RA_OF_ASC_NODE":"85.1492","REV_AT_EPOCH":"1914","MEAN_MOTION_DDOT":"0.0000000000000","MEAN_ELEMENT_THEORY":"SGP4","CLASSIFICATION_TYPE":"U","MEAN_MOTION_DOT":"0.00001661","TLE_LINE2":"2 53630  53.2181  85.1492 0001588  58.2271 301.8875 15.08843389 19141","RCS_SIZE":"LARGE","EPOCH":"2022-12-23T18:22:15.040704","COUNTRY_CODE":"US","TLE_LINE1":"1 53630U 22104AU  22357.76545186  .00001661  00000-0  12241-3 0  9994","FILE":"3720518","OBJECT_TYPE":"PAYLOAD","PERIAPSIS":"538.636","MEAN_ANOMALY":"301.8875","LAUNCH_DATE":"2022-08-28","OBJECT_NAME":"STARLINK-4598","SEMIMAJOR_AXIS":"6917.870","SITE":"AFETR","OBJECT_ID":"2022-104AU"},{"RA_OF_ASC_NODE":"93.6915","ARG_OF_PERICENTER":"42.9913","MEAN_MOTION_DDOT":"0.0000000000000","MEAN_ELEMENT_THEORY":"SGP4","REV_AT_EPOCH":"1818","BSTAR":"0.00023298000000","PERIOD":"95.437","CENTER_NAME":"EARTH","TIME_SYSTEM":"UTC","GP_ID":"221310906","MEAN_MOTION":"15.08844565","ELEMENT_SET_NO":"999","ECCENTRICITY":"0.00019910","APOAPSIS":"541.109","INCLINATION":"53.2185","DECAY_DATE":null,"REF_FRAME":"TEME","NORAD_CAT_ID":"53631","EPHEMERIS_TYPE":"0","SEMIMAJOR_AXIS":"6917.866","SITE":"AFETR","OBJECT_ID":"2022-104AV","MEAN_ANOMALY":"317.1235","LAUNCH_DATE":"2022-08-28","OBJECT_NAME":"STARLINK-4599","TLE_LINE1":"1 53631U 22104AV  22357.98893607  .00003422  00000-0  23298-3 0  9994","EPOCH":"2022-12-23T23:44:04.076448","RCS_SIZE":"LARGE","COUNTRY_CODE":"US","OBJECT_TYPE":"PAYLOAD","PERIAPSIS":"538.354","FILE":"3720561","CLASSIFICATION_TYPE":"U","TLE_LINE2":"2 53631  53.2185  93.6915 0001991  42.9913 317.1235 15.08844565 18181","MEAN_MOTION_DOT":"0.00003422"},{"PERIAPSIS":"538.502","OBJECT_TYPE":"PAYLOAD","FILE":"3720521","TLE_LINE1":"1 53632U 22104AW  22357.95678219  .00002445  00000-0  17164-3 0  9991","EPOCH":"2022-12-23T22:57:45.981216","RCS_SIZE":"LARGE","COUNTRY_CODE":"US","TLE_LINE2":"2 53632  53.2179  84.2096 0001762  43.1881 316.9249 15.08848038 18310","MEAN_MOTION_DOT":"0.00002445","CLASSIFICATION_TYPE":"U","OBJECT_ID":"2022-104AW","SEMIMAJOR_AXIS":"6917.856","SITE":"AFETR","LAUNCH_DATE":"2022-08-28","OBJECT_NAME":"STARLINK-4606","MEAN_ANOMALY":"316.9249","MEAN_MOTION":"15.08848038","ELEMENT_SET_NO":"999","ECCENTRICITY":"0.00017620","APOAPSIS":"540.940","GP_ID":"221310017","REF_FRAME":"TEME","EPHEMERIS_TYPE":"0","NORAD_CAT_ID":"53632","INCLINATION":"53.2179","DECAY_DATE":null,"MEAN_MOTION_DDOT":"0.0000000000000","MEAN_ELEMENT_THEORY":"SGP4","REV_AT_EPOCH":"1831","RA_OF_ASC_NODE":"84.2096","ARG_OF_PERICENTER":"43.1881","PERIOD":"95.437","CENTER_NAME":"EARTH","TIME_SYSTEM":"UTC","BSTAR":"0.00017164000000"},{"EPHEMERIS_TYPE":"0","NORAD_CAT_ID":"53633","REF_FRAME":"TEME","DECAY_DATE":null,"INCLINATION":"53.2193","APOAPSIS":"540.703","ECCENTRICITY":"0.00014020","ELEMENT_SET_NO":"999","MEAN_MOTION":"15.08844091","GP_ID":"221309891","TIME_SYSTEM":"UTC","CENTER_NAME":"EARTH","PERIOD":"95.437","BSTAR":"0.00003355200000","REV_AT_EPOCH":"1831","MEAN_ELEMENT_THEORY":"SGP4","MEAN_MOTION_DDOT":"0.0000000000000","ARG_OF_PERICENTER":"72.6918","RA_OF_ASC_NODE":"84.2328","MEAN_MOTION_DOT":"0.00000246","TLE_LINE2":"2 53633  53.2193  84.2328 0001402  72.6918 287.4227 15.08844091 18317","CLASSIFICATION_TYPE":"U","FILE":"3720519","OBJECT_TYPE":"PAYLOAD","PERIAPSIS":"538.763","COUNTRY_CODE":"US","RCS_SIZE":"LARGE","EPOCH":"2022-12-23T23:03:05.040864","TLE_LINE1":"1 53633U 22104AX  22357.96047501  .00000246  00000-0  33552-4 0  9994","OBJECT_NAME":"STARLINK-4593","LAUNCH_DATE":"2022-08-28","MEAN_ANOMALY":"287.4227","OBJECT_ID":"2022-104AX","SEMIMAJOR_AXIS":"6917.868","SITE":"AFETR"},{"MEAN_MOTION_DOT":"0.00000148","TLE_LINE2":"2 53633  53.2193  85.1246 0001403  73.1346 286.9800 15.08835791 18978","CLASSIFICATION_TYPE":"U","FILE":"3720518","PERIAPSIS":"538.788","OBJECT_TYPE":"PAYLOAD","EPOCH":"2022-12-23T18:16:56.116704","RCS_SIZE":"LARGE","COUNTRY_CODE":"US","TLE_LINE1":"1 53633U 22104AX  22357.76176061  .00000148  00000-0  27420-4 0  9994","LAUNCH_DATE":"2022-08-28","OBJECT_NAME":"STARLINK-4593","MEAN_ANOMALY":"286.9800","OBJECT_ID":"2022-104AX","SITE":"AFETR","SEMIMAJOR_AXIS":"6917.893","REF_FRAME":"TEME","NORAD_CAT_ID":"53633","EPHEMERIS_TYPE":"0","DECAY_DATE":null,"INCLINATION":"53.2193","ECCENTRICITY":"0.00014030","APOAPSIS":"540.729","MEAN_MOTION":"15.08835791","ELEMENT_SET_NO":"999","GP_ID":"221309367","TIME_SYSTEM":"UTC","CENTER_NAME":"EARTH","PERIOD":"95.438","BSTAR":"0.00002742000000","REV_AT_EPOCH":"1897","MEAN_MOTION_DDOT":"0.0000000000000","MEAN_ELEMENT_THEORY":"SGP4","ARG_OF_PERICENTER":"73.1346","RA_OF_ASC_NODE":"85.1246"},{"DECAY_DATE":null,"INCLINATION":"53.2171","EPHEMERIS_TYPE":"0","NORAD_CAT_ID":"53634","REF_FRAME":"TEME","GP_ID":"221309927","APOAPSIS":"541.091","ECCENTRICITY":"0.00018860","ELEMENT_SET_NO":"999","MEAN_MOTION":"15.08826605","BSTAR":"0.00003198400000","CENTER_NAME":"EARTH","TIME_SYSTEM":"UTC","PERIOD":"95.438","ARG_OF_PERICENTER":"40.4192","RA_OF_ASC_NODE":"84.1633","REV_AT_EPOCH":"1831","MEAN_ELEMENT_THEORY":"SGP4","MEAN_MOTION_DDOT":"0.0000000000000","CLASSIFICATION_TYPE":"U","MEAN_MOTION_DOT":"0.00000221","TLE_LINE2":"2 53634  53.2171  84.1633 0001886  40.4192 319.6940 15.08826605 18316","COUNTRY_CODE":"US","EPOCH":"2022-12-23T22:47:10.081536","RCS_SIZE":"LARGE","TLE_LINE1":"1 53634U 22104AY  22357.94942224  .00000221  00000-0  31984-4 0  9999","FILE":"3720520","OBJECT_TYPE":"PAYLOAD","PERIAPSIS":"538.482","MEAN_ANOMALY":"319.6940","OBJECT_NAME":"STARLINK-4592","LAUNCH_DATE":"2022-08-28","SITE":"AFETR","SEMIMAJOR_AXIS":"6917.921","OBJECT_ID":"2022-104AY"},{"GP_ID":"221308335","APOAPSIS":"541.104","ECCENTRICITY":"0.00018920","ELEMENT_SET_NO":"999","MEAN_MOTION":"15.08823849","DECAY_DATE":null,"INCLINATION":"53.2168","EPHEMERIS_TYPE":"0","NORAD_CAT_ID":"53634","REF_FRAME":"TEME","ARG_OF_PERICENTER":"39.2855","RA_OF_ASC_NODE":"85.3530","REV_AT_EPOCH":"1929","MEAN_ELEMENT_THEORY":"SGP4","MEAN_MOTION_DDOT":"0.0000000000000","BSTAR":"0.00009202800000","TIME_SYSTEM":"UTC","CENTER_NAME":"EARTH","PERIOD":"95.439","COUNTRY_CODE":"US","RCS_SIZE":"LARGE","EPOCH":"2022-12-23T16:25:37.306848","TLE_LINE1":"1 53634U 22104AY  22357.68445957  .00001176  00000-0  92028-4 0  9997","FILE":"3720518","PERIAPSIS":"538.486","OBJECT_TYPE":"PAYLOAD","CLASSIFICATION_TYPE":"U","MEAN_MOTION_DOT":"0.00001176","TLE_LINE2":"2 53634  53.2168  85.3530 0001892  39.2855 320.8274 15.08823849 19299","SITE":"AFETR","SEMIMAJOR_AXIS":"6917.930","OBJECT_ID":"2022-104AY","MEAN_ANOMALY":"320.8274","OBJECT_NAME":"STARLINK-4592","LAUNCH_DATE":"2022-08-28"},{"GP_ID":"221308542","MEAN_MOTION":"15.08818669","ELEMENT_SET_NO":"999","APOAPSIS":"541.095","ECCENTRICITY":"0.00018570","INCLINATION":"53.2181","DECAY_DATE":null,"NORAD_CAT_ID":"53635","EPHEMERIS_TYPE":"0","REF_FRAME":"TEME","RA_OF_ASC_NODE":"85.3749","ARG_OF_PERICENTER":"48.0647","MEAN_ELEMENT_THEORY":"SGP4","MEAN_MOTION_DDOT":"0.0000000000000","REV_AT_EPOCH":"1929","BSTAR":"0.00013482000000","PERIOD":"95.439","TIME_SYSTEM":"UTC","CENTER_NAME":"EARTH","TLE_LINE1":"1 53635U 22104AZ  22357.68815095  .00001857  00000-0  13482-3 0  9994","COUNTRY_CODE":"US","EPOCH":"2022-12-23T16:30:56.242080","RCS_SIZE":"LARGE","PERIAPSIS":"538.526","OBJECT_TYPE":"PAYLOAD","FILE":"3720518","CLASSIFICATION_TYPE":"U","TLE_LINE2":"2 53635  53.2181  85.3749 0001857  48.0647 312.0503 15.08818669 19297","MEAN_MOTION_DOT":"0.00001857","SEMIMAJOR_AXIS":"6917.946","SITE":"AFETR","OBJECT_ID":"2022-104AZ","MEAN_ANOMALY":"312.0503","OBJECT_NAME":"STARLINK-4587","LAUNCH_DATE":"2022-08-28"}];
